COMMENT,ORIGINATOR,NORAD_CAT_ID,OBJECT_NAME,OBJECT_TYPE,CLASSIFICATION_TYPE,INTLDES,EPOCH,EPOCH_MICROSECONDS,MEAN_MOTION,ECCENTRICITY,INCLINATION,RA_OF_ASC_NODE,ARG_OF_PERICENTER,MEAN_ANOMALY,EPHEMERIS_TYPE,ELEMENT_SET_NO,REV_AT_EPOCH,BSTAR,MEAN_MOTION_DOT,MEAN_MOTION_DDOT,FILE,TLE_LINE0,TLE_LINE1,TLE_LINE2,OBJECT_ID,OBJECT_NUMBER,SEMIMAJOR_AXIS,PERIOD,APOGEE,PERIGEE,DECAYED
GENERATED VIA SPACETRACK.ORG API,18 SPCS,50803,STARLINK-3321,PAYLOAD,U,22001A,2024-06-03 19:14:00,4416,15.08838955,0.0001246,53.2158,179.6468,92.6756,267.4379,0,999,13320,5.0837e-05,5.21e-06,0.0,4335600,0 STARLINK-3321,1 50803U 22001A   24155.80138894  .00000521  00000-0  50837-4 0  9994,2 50803  53.2158 179.6468 0001246  92.6756 267.4379 15.08838955133200,2022-001A,50803,6917.884,95.438,540.611,538.887,1
GENERATED VIA SPACETRACK.ORG API,18 SPCS,50803,STARLINK-3321,PAYLOAD,U,22001A,2024-06-04 11:07:50,903040,15.08846245,0.0001259,53.2153,176.6725,98.2661,261.8474,0,999,13330,5.9578e-05,6.61e-06,0.0,4336232,0 STARLINK-3321,1 50803U 22001A   24156.46378360  .00000661  00000-0  59578-4 0  9997,2 50803  53.2153 176.6725 0001259  98.2661 261.8474 15.08846245133305,2022-001A,50803,6917.861,95.437,540.597,538.855,1
GENERATED VIA SPACETRACK.ORG API,18 SPCS,50803,STARLINK-3321,PAYLOAD,U,22001A,2024-06-04 11:07:50,903040,15.08846245,0.0001259,53.2153,176.6725,98.2661,261.8474,0,999,13457,5.9578e-05,6.61e-06,0.0,4336357,0 STARLINK-3321,1 50803U 22001A   24156.46378360  .00000661  00000-0  59578-4 0  9997,2 50803  53.2153 176.6725 0001259  98.2661 261.8474 15.08846245134575,2022-001A,50803,6917.861,95.437,540.597,538.855,1
GENERATED VIA SPACETRACK.ORG API,18 SPCS,50803,STARLINK-3321,PAYLOAD,U,22001A,2024-06-05 07:47:51,358272,15.08845191,0.0001257,53.2148,172.8063,97.605,262.5085,0,999,13343,0.00013667,1.888e-05,0.0,4337216,0 STARLINK-3321,1 50803U 22001A   24157.32489998  .00001888  00000-0  13667-3 0  9993,2 50803  53.2148 172.8063 0001257  97.6050 262.5085 15.08845191133434,2022-001A,50803,6917.865,95.437,540.599,538.86,1
GENERATED VIA SPACETRACK.ORG API,18 SPCS,50803,STARLINK-3321,PAYLOAD,U,22001A,2024-06-06 04:27:53,588160,15.08830339,0.0001294,53.2153,168.9401,98.655,261.4588,0,999,13483,-3.9072e-05,-9.09e-06,0.0,4337695,0 STARLINK-3321,1 50803U 22001A   24158.18603690 -.00000909  00000-0 -39072-4 0  9999,2 50803  53.2153 168.9401 0001294  98.6550 261.4588 15.08830339134838,2022-001A,50803,6917.91,95.438,540.67,538.88,1
GENERATED VIA SPACETRACK.ORG API,18 SPCS,50803,STARLINK-3321,PAYLOAD,U,22001A,2024-06-06 07:38:40,8768,15.0882934,0.0001185,53.2147,168.3468,91.7341,268.3787,0,999,13358,-4.7476e-05,-1.043e-05,0.0,4338168,0 STARLINK-3321,1 50803U 22001A   24158.31851862 -.00001043  00000-0 -47476-4 0  9997,2 50803  53.2147 168.3468 0001185  91.7341 268.3787 15.08829340133587,2022-001A,50803,6917.913,95.438,540.598,538.958,1
GENERATED VIA SPACETRACK.ORG API,18 SPCS,50803,STARLINK-3321,PAYLOAD,U,22001A,2024-06-07 01:07:54,948864,15.08832007,0.0001239,53.2158,165.0758,87.4019,272.7115,0,999,13369,-8.2574e-05,-1.601e-05,0.0,4338820,0 STARLINK-3321,1 50803U 22001A   24159.04716376 -.00001601  00000-0 -82574-4 0  9996,2 50803  53.2158 165.0758 0001239  87.4019 272.7115 15.08832007133699,2022-001A,50803,6917.905,95.438,540.627,538.913,1
GENERATED VIA SPACETRACK.ORG API,18 SPCS,50803,STARLINK-3321,PAYLOAD,U,22001A,2024-06-07 17:01:46,36704,15.08838542,0.0001284,53.2157,162.1022,87.4434,272.6705,0,999,13506,-1.624e-05,-5.46e-06,0.0,4338914,0 STARLINK-3321,1 50803U 22001A   24159.70956061 -.00000546  00000-0 -16240-4 0  9990,2 50803  53.2157 162.1022 0001284  87.4434 272.6705 15.08838542135068,2022-001A,50803,6917.885,95.438,540.638,538.862,1
GENERATED VIA SPACETRACK.ORG API,18 SPCS,50803,STARLINK-3321,PAYLOAD,U,22001A,2024-06-07 17:01:46,36704,15.08838542,0.0001284,53.2157,162.1022,87.4434,272.6705,0,999,13379,-1.624e-05,-5.46e-06,0.0,4339174,0 STARLINK-3321,1 50803U 22001A   24159.70956061 -.00000546  00000-0 -16240-4 0  9990,2 50803  53.2157 162.1022 0001284  87.4434 272.6705 15.08838542133796,2022-001A,50803,6917.885,95.438,540.638,538.862,1
GENERATED VIA SPACETRACK.ORG API,18 SPCS,50803,STARLINK-3321,PAYLOAD,U,22001A,2024-06-08 07:20:14,322912,15.08836151,0.0001287,53.2152,159.4253,81.6359,278.4779,0,999,13388,0.00019548,2.824e-05,0.0,4339667,0 STARLINK-3321,1 50803U 22001A   24160.30572133  .00002824  00000-0  19548-3 0  9994,2 50803  53.2152 159.4253 0001287  81.6359 278.4779 15.08836151133880,2022-001A,50803,6917.892,95.438,540.647,538.867,1
GENERATED VIA SPACETRACK.ORG API,18 SPCS,50803,STARLINK-3321,PAYLOAD,U,22001A,2024-06-08 16:52:33,68928,15.08839825,0.0001308,53.2153,157.6415,83.7802,276.3339,0,999,13394,0.00019999,2.896e-05,0.0,4340103,0 STARLINK-3321,1 50803U 22001A   24160.70316052  .00002896  00000-0  19999-3 0  9993,2 50803  53.2153 157.6415 0001308  83.7802 276.3339 15.08839825133948,2022-001A,50803,6917.881,95.438,540.651,538.841,1
GENERATED VIA SPACETRACK.ORG API,18 SPCS,50803,STARLINK-3321,PAYLOAD,U,22001A,2024-06-09 04:00:14,811840,15.08846453,0.0001297,53.2152,155.5595,83.9835,276.1305,0,999,13528,0.00019687,2.847e-05,0.0,4340195,0 STARLINK-3321,1 50803U 22001A   24161.16683810  .00002847  00000-0  19687-3 0  9993,2 50803  53.2152 155.5595 0001297  83.9835 276.1305 15.08846453135283,2022-001A,50803,6917.861,95.437,540.623,538.828,1
GENERATED VIA SPACETRACK.ORG API,18 SPCS,50803,STARLINK-3321,PAYLOAD,U,22001A,2024-06-09 07:11:01,12128,15.0884938,0.000134,53.2144,154.9648,83.079,277.0355,0,999,13403,0.00023233,3.412e-05,0.0,4340710,0 STARLINK-3321,1 50803U 22001A   24161.29931727  .00003412  00000-0  23233-3 0  9991,2 50803  53.2144 154.9648 0001340  83.0790 277.0355 15.08849380134035,2022-001A,50803,6917.852,95.437,540.644,538.79,1
GENERATED VIA SPACETRACK.ORG API,18 SPCS,50803,STARLINK-3321,PAYLOAD,U,22001A,2024-06-09 16:43:19,864416,15.08846409,0.0001328,53.2146,153.1813,86.3821,273.7323,0,999,13409,0.00014111,1.959e-05,0.0,4341001,0 STARLINK-3321,1 50803U 22001A   24161.69675769  .00001959  00000-0  14111-3 0  9995,2 50803  53.2146 153.1813 0001328  86.3821 273.7323 15.08846409134092,2022-001A,50803,6917.861,95.437,540.644,538.807,1
GENERATED VIA SPACETRACK.ORG API,18 SPCS,50803,STARLINK-3321,PAYLOAD,U,22001A,2024-06-10 05:26:25,215936,15.08839298,0.000138,53.2148,150.8025,88.2032,271.9118,0,999,13544,-1.6889e-05,-5.57e-06,0.0,4341078,0 STARLINK-3321,1 50803U 22001A   24162.22668074 -.00000557  00000-0 -16889-4 0  9996,2 50803  53.2148 150.8025 0001380  88.2032 271.9118 15.08839298135446,2022-001A,50803,6917.883,95.438,540.702,538.793,1
GENERATED VIA SPACETRACK.ORG API,18 SPCS,50803,STARLINK-3321,PAYLOAD,U,22001A,2024-06-10 07:01:48,268992,15.08841167,0.0001436,53.2149,150.5049,88.4236,271.692,0,999,13418,-8.0661e-06,-4.16e-06,0.0,4341678,0 STARLINK-3321,1 50803U 22001A   24162.29291978 -.00000416  00000-0 -80661-5 0  9992,2 50803  53.2149 150.5049 0001436  88.4236 271.6920 15.08841167134186,2022-001A,50803,6917.877,95.437,540.735,538.748,1
GENERATED VIA SPACETRACK.ORG API,18 SPCS,50803,STARLINK-3321,PAYLOAD,U,22001A,2024-06-10 22:55:39,618624,15.08844937,0.0001439,53.2155,147.5312,89.2275,270.8882,0,999,13428,1.4359e-05,-5.9e-07,0.0,4341979,0 STARLINK-3321,1 50803U 22001A   24162.95531966 -.00000059  00000-0  14359-4 0  9991,2 50803  53.2155 147.5312 0001439  89.2275 270.8882 15.08844937134284,2022-001A,50803,6917.865,95.437,540.726,538.735,1
GENERATED VIA SPACETRACK.ORG API,18 SPCS,50803,STARLINK-3321,PAYLOAD,U,22001A,2024-06-11 05:17:11,968224,15.08846399,0.0001435,53.2153,146.3417,89.3067,270.8089,0,999,13432,2.4173e-05,9.7e-07,0.0,4342306,0 STARLINK-3321,1 50803U 22001A   24163.22027741  .00000097  00000-0  24173-4 0  9999,2 50803  53.2153 146.3417 0001435  89.3067 270.8089 15.08846399134329,2022-001A,50803,6917.861,95.437,540.719,538.733,1
GENERATED VIA SPACETRACK.ORG API,18 SPCS,50803,STARLINK-3321,PAYLOAD,U,22001A,2024-06-12 05:07:59,346912,15.08837881,0.0001492,53.2152,141.8808,93.3586,266.7577,0,999,13574,7.5721e-05,9.17e-06,0.0,4342484,0 STARLINK-3321,1 50803U 22001A   24164.21388133  .00000917  00000-0  75721-4 0  9990,2 50803  53.2152 141.8808 0001492  93.3586 266.7577 15.08837881135745,2022-001A,50803,6917.887,95.438,540.784,538.72,1
GENERATED VIA SPACETRACK.ORG API,18 SPCS,50803,STARLINK-3321,PAYLOAD,U,22001A,2024-06-12 05:07:59,346912,15.08837881,0.0001492,53.2152,141.8808,93.3586,266.7577,0,999,13447,7.5721e-05,9.17e-06,0.0,4343257,0 STARLINK-3321,1 50803U 22001A   24164.21388133  .00000917  00000-0  75721-4 0  9990,2 50803  53.2152 141.8808 0001492  93.3586 266.7577 15.08837881134474,2022-001A,50803,6917.887,95.438,540.784,538.72,1
GENERATED VIA SPACETRACK.ORG API,18 SPCS,50803,STARLINK-3321,PAYLOAD,U,22001A,2024-06-12 08:18:45,624096,15.08838038,0.0001532,53.2158,141.2855,96.9689,263.1477,0,999,13449,7.2773e-05,8.7e-06,0.0,4343479,0 STARLINK-3321,1 50803U 22001A   24164.34636139  .00000870  00000-0  72773-4 0  9998,2 50803  53.2158 141.2855 0001532  96.9689 263.1477 15.08838038134491,2022-001A,50803,6917.886,95.438,540.811,538.692,1
GENERATED VIA SPACETRACK.ORG API,18 SPCS,50803,STARLINK-3321,PAYLOAD,U,22001A,2024-06-13 08:09:32,513760,15.08841868,0.0001564,53.2163,136.8257,97.1552,262.9618,0,999,13591,6.1789e-05,6.96e-06,0.0,4343918,0 STARLINK-3321,1 50803U 22001A   24165.33995965  .00000696  00000-0  61789-4 0  9994,2 50803  53.2163 136.8257 0001564  97.1552 262.9618 15.08841868135917,2022-001A,50803,6917.875,95.437,540.822,538.658,1
GENERATED VIA SPACETRACK.ORG API,18 SPCS,50803,STARLINK-3321,PAYLOAD,U,22001A,2024-06-13 08:09:32,513760,15.08841868,0.0001564,53.2163,136.8257,97.1552,262.9618,0,999,13464,6.1789e-05,6.96e-06,0.0,4344164,0 STARLINK-3321,1 50803U 22001A   24165.33995965  .00000696  00000-0  61789-4 0  9994,2 50803  53.2163 136.8257 0001564  97.1552 262.9618 15.08841868134646,2022-001A,50803,6917.875,95.437,540.822,538.658,1
